{
    "links": {
        "self": "http://www.neowsapp.com/rest/v1/neo/3624592?api_key=iIulBulltgU6a56xZRHN4H3l9WmuAYTsLGpBGhQ2"
    },
    "id": "3624592",
    "neo_reference_id": "3624592",
    "name": "(2013 BQ15)",
    "designation": "2013 BQ15",
    "nasa_jpl_url": "http://ssd.jpl.nasa.gov/sbdb.cgi?sstr=3624592",
    "absolute_magnitude_h": 24.1,
    "estimated_diameter": {
        "kilometers": {
            "estimated_diameter_min": 0.040230458,
            "estimated_diameter_max": 0.0899580388
        },
        "meters": {
            "estimated_diameter_min": 40.2304579834,
            "estimated_diameter_max": 89.9580388169
        },
        "miles": {
            "estimated_diameter_min": 0.0249980399,
            "estimated_diameter_max": 0.0558973165
        },
        "feet": {
            "estimated_diameter_min": 131.9896957704,
            "estimated_diameter_max": 295.1379320721
        }
    },
    "is_potentially_hazardous_asteroid": false,
    "close_approach_data": [
        {
            "close_approach_date": "2013-01-12",
            "close_approach_date_full": "2013-Jan-12 15:14",
            "epoch_date_close_approach": 1358003640000,
            "relative_velocity": {
                "kilometers_per_second": "14.0323119926",
                "kilometers_per_hour": "50516.3231733647",
                "miles_per_hour": "31388.8786962498"
            },
            "miss_distance": {
                "astronomical": "0.2376105846",
                "lunar": "92.4305174094",
                "kilometers": "35546037.345614802",
                "miles": "22087283.4056241876"
            },
            "orbiting_body": "Earth"
        }
    ],
    "orbital_data": {
        "orbit_id": "5",
        "orbit_determination_date": "2019-07-16 06:15:04",
        "first_observation_date": "2013-01-16",
        "last_observation_date": "2013-01-17",
        "data_arc_in_days": 1,
        "observations_used": 9,
        "orbit_uncertainty": "9",
        "minimum_orbit_intersection": ".236484",
        "jupiter_tisserand_invariant": "4.245",
        "epoch_osculation": "2456309.5",
        "eccentricity": ".2426595183389631",
        "semi_major_axis": "1.581332557296623",
        "inclination": "26.82484481082525",
        "ascending_node_longitude": "296.5684666189449",
        "orbital_period": "726.3287677488297",
        "perihelion_distance": "1.197607160609304",
        "perihelion_argument": "152.245628079995",
        "aphelion_distance": "1.965057953983943",
        "perihelion_time": "2456275.988089199759",
        "mean_anomaly": "16.60995464282462",
        "mean_motion": ".4956433174411878",
        "equinox": "J2000",
        "orbit_class": {
            "orbit_class_type": "AMO",
            "orbit_class_description": "Near-Earth asteroid orbits similar to that of 1221 Amor",
            "orbit_class_range": "1.017 AU < q (perihelion) < 1.3 AU"
        }
    },
    "is_sentry_object": false
}